[{"OBJECT_NAME":"FOSSASAT-2E20 (TAT-O)","OBJECT_ID":"2025-009DN","EPOCH":"2026-03-09T17:00:18.734688","MEAN_MOTION":15.2699108,"ECCENTRICITY":0.00021892,"INCLINATION":97.3231,"RA_OF_ASC_NODE":146.2859,"ARG_OF_PERICENTER":347.5575,"MEAN_ANOMALY":12.561,"EPHEMERIS_TYPE":0,"CLASSIFICATION_TYPE":"U","NORAD_CAT_ID":63003,"ELEMENT_SET_NO":999,"REV_AT_EPOCH":12131,"BSTAR":0.00061862572,"MEAN_MOTION_DOT":0.00016337,"MEAN_MOTION_DDOT":0},{"OBJECT_NAME":"STARLINK-33531","OBJECT_ID":"2025-065A","EPOCH":"2026-03-08T11:10:12.836640","MEAN_MOTION":15.27601157,"ECCENTRICITY":0.00012042,"INCLINATION":43.0009,"RA_OF_ASC_NODE":113.9152,"ARG_OF_PERICENTER":281.0419,"MEAN_ANOMALY":79.0297,"EPHEMERIS_TYPE":0,"CLASSIFICATION_TYPE":"U","NORAD_CAT_ID":63399,"ELEMENT_SET_NO":999,"REV_AT_EPOCH":5265,"BSTAR":0.0013310448,"MEAN_MOTION_DOT":0.00036571,"MEAN_MOTION_DDOT":0}]
